{
    "links": {
        "self": "http://www.neowsapp.com/rest/v1/neo/3576470?api_key=iIulBulltgU6a56xZRHN4H3l9WmuAYTsLGpBGhQ2"
    },
    "id": "3576470",
    "neo_reference_id": "3576470",
    "name": "(2011 QT2)",
    "designation": "2011 QT2",
    "nasa_jpl_url": "http://ssd.jpl.nasa.gov/sbdb.cgi?sstr=3576470",
    "absolute_magnitude_h": 22.7,
    "estimated_diameter": {
        "kilometers": {
            "estimated_diameter_min": 0.0766575574,
            "estimated_diameter_max": 0.1714115092
        },
        "meters": {
            "estimated_diameter_min": 76.6575573531,
            "estimated_diameter_max": 171.4115092306
        },
        "miles": {
            "estimated_diameter_min": 0.0476327831,
            "estimated_diameter_max": 0.1065101409
        },
        "feet": {
            "estimated_diameter_min": 251.5011804664,
            "estimated_diameter_max": 562.3737359442
        }
    },
    "is_potentially_hazardous_asteroid": false,
    "close_approach_data": [
        {
            "close_approach_date": "1979-03-18",
            "close_approach_date_full": "1979-Mar-18 12:38",
            "epoch_date_close_approach": 290608680000,
            "relative_velocity": {
                "kilometers_per_second": "3.6870773131",
                "kilometers_per_hour": "13273.4783270873",
                "miles_per_hour": "8247.6232416282"
            },
            "miss_distance": {
                "astronomical": "1.0660135269",
                "lunar": "414.6792619641",
                "kilometers": "159473353.015427703",
                "miles": "99092146.5998921814"
            },
            "orbiting_body": "Juptr"
        },
        {
            "close_approach_date": "1998-09-24",
            "close_approach_date_full": "1998-Sep-24 11:15",
            "epoch_date_close_approach": 906635700000,
            "relative_velocity": {
                "kilometers_per_second": "21.1146633546",
                "kilometers_per_hour": "76012.7880767364",
                "miles_per_hour": "47231.3904580143"
            },
            "miss_distance": {
                "astronomical": "0.4958641468",
                "lunar": "192.8911531052",
                "kilometers": "74180220.170647316",
                "miles": "46093451.4322963208"
            },
            "orbiting_body": "Earth"
        },
        {
            "close_approach_date": "2011-08-10",
            "close_approach_date_full": "2011-Aug-10 15:52",
            "epoch_date_close_approach": 1312991520000,
            "relative_velocity": {
                "kilometers_per_second": "7.2147420708",
                "kilometers_per_hour": "25973.071454987",
                "miles_per_hour": "16138.656538239"
            },
            "miss_distance": {
                "astronomical": "0.067217879",
                "lunar": "26.147754931",
                "kilometers": "10055651.52431773",
                "miles": "6248292.120055474"
            },
            "orbiting_body": "Earth"
        },
        {
            "close_approach_date": "2026-08-13",
            "close_approach_date_full": "2026-Aug-13 17:10",
            "epoch_date_close_approach": 1786641000000,
            "relative_velocity": {
                "kilometers_per_second": "3.795444378",
                "kilometers_per_hour": "13663.5997609403",
                "miles_per_hour": "8490.0295292354"
            },
            "miss_distance": {
                "astronomical": "1.0792820967",
                "lunar": "419.8407356163",
                "kilometers": "161458302.795454029",
                "miles": "100325537.2001184402"
            },
            "orbiting_body": "Juptr"
        }
    ],
    "orbital_data": {
        "orbit_id": "14",
        "orbit_determination_date": "2017-04-06 08:52:59",
        "first_observation_date": "2011-06-08",
        "last_observation_date": "2011-09-26",
        "data_arc_in_days": 110,
        "observations_used": 60,
        "orbit_uncertainty": "5",
        "minimum_orbit_intersection": ".0470859",
        "jupiter_tisserand_invariant": "3.110",
        "epoch_osculation": "2459000.5",
        "eccentricity": ".5991668746427585",
        "semi_major_axis": "2.64159210334339",
        "inclination": "1.06876562254811",
        "ascending_node_longitude": "77.09893499584255",
        "orbital_period": "1568.184162033994",
        "perihelion_distance": "1.05883761870214",
        "perihelion_argument": "233.8770550204095",
        "aphelion_distance": "4.224346587984639",
        "perihelion_time": "2458919.673336916766",
        "mean_anomaly": "18.55496274890541",
        "mean_motion": ".2295648742766707",
        "equinox": "J2000",
        "orbit_class": {
            "orbit_class_type": "AMO",
            "orbit_class_description": "Near-Earth asteroid orbits similar to that of 1221 Amor",
            "orbit_class_range": "1.017 AU < q (perihelion) < 1.3 AU"
        }
    },
    "is_sentry_object": false
}